[{"OBJECT_NAME":"STARLINK-33595","OBJECT_ID":"2025-015J","EPOCH":"2025-08-24T12:07:21.591264","MEAN_MOTION":15.30201142,"ECCENTRICITY":0.00011825,"INCLINATION":53.1602,"RA_OF_ASC_NODE":158.1915,"ARG_OF_PERICENTER":85.9097,"MEAN_ANOMALY":274.2039,"EPHEMERIS_TYPE":0,"CLASSIFICATION_TYPE":"U","NORAD_CAT_ID":62766,"ELEMENT_SET_NO":999,"REV_AT_EPOCH":3429,"BSTAR":0.00053640387,"MEAN_MOTION_DOT":0.00015561,"MEAN_MOTION_DDOT":0},{"OBJECT_NAME":"STARLINK-33572","OBJECT_ID":"2025-015K","EPOCH":"2025-08-24T12:30:08.820288","MEAN_MOTION":15.30221512,"ECCENTRICITY":0.00013071,"INCLINATION":53.1602,"RA_OF_ASC_NODE":158.2915,"ARG_OF_PERICENTER":78.6603,"MEAN_ANOMALY":281.4544,"EPHEMERIS_TYPE":0,"CLASSIFICATION_TYPE":"U","NORAD_CAT_ID":62767,"ELEMENT_SET_NO":999,"REV_AT_EPOCH":3423,"BSTAR":0.0010967292,"MEAN_MOTION_DOT":0.00032286,"MEAN_MOTION_DDOT":0},{"OBJECT_NAME":"STARLINK-33601","OBJECT_ID":"2025-015L","EPOCH":"2025-08-24T12:21:02.186496","MEAN_MOTION":15.30208609,"ECCENTRICITY":0.00012773,"INCLINATION":53.1611,"RA_OF_ASC_NODE":158.2485,"ARG_OF_PERICENTER":88.5796,"MEAN_ANOMALY":271.5351,"EPHEMERIS_TYPE":0,"CLASSIFICATION_TYPE":"U","NORAD_CAT_ID":62768,"ELEMENT_SET_NO":999,"REV_AT_EPOCH":3429,"BSTAR":0.00068773683,"MEAN_MOTION_DOT":0.0002007,"MEAN_MOTION_DDOT":0},{"OBJECT_NAME":"STARLINK-33569","OBJECT_ID":"2025-015M","EPOCH":"2025-08-24T11:56:43.378656","MEAN_MOTION":15.30202324,"ECCENTRICITY":0.00012487,"INCLINATION":53.1596,"RA_OF_ASC_NODE":158.1469,"ARG_OF_PERICENTER":86.415,"MEAN_ANOMALY":273.6993,"EPHEMERIS_TYPE":0,"CLASSIFICATION_TYPE":"U","NORAD_CAT_ID":62769,"ELEMENT_SET_NO":999,"REV_AT_EPOCH":3429,"BSTAR":0.00050740394,"MEAN_MOTION_DOT":0.00014699,"MEAN_MOTION_DDOT":0},{"OBJECT_NAME":"STARLINK-33594","OBJECT_ID":"2025-015N","EPOCH":"2025-08-24T11:46:05.037312","MEAN_MOTION":15.30205495,"ECCENTRICITY":0.00012986,"INCLINATION":53.1591,"RA_OF_ASC_NODE":158.0998,"ARG_OF_PERICENTER":89.6983,"MEAN_ANOMALY":270.4167,"EPHEMERIS_TYPE":0,"CLASSIFICATION_TYPE":"U","NORAD_CAT_ID":62770,"ELEMENT_SET_NO":999,"REV_AT_EPOCH":3429,"BSTAR":0.00044913704,"MEAN_MOTION_DOT":0.00012968,"MEAN_MOTION_DDOT":0},{"OBJECT_NAME":"STARLINK-33598","OBJECT_ID":"2025-015P","EPOCH":"2025-08-24T04:09:31.557888","MEAN_MOTION":15.30145413,"ECCENTRICITY":8.442e-5,"INCLINATION":53.1597,"RA_OF_ASC_NODE":159.674,"ARG_OF_PERICENTER":75.7506,"MEAN_ANOMALY":284.3588,"EPHEMERIS_TYPE":0,"CLASSIFICATION_TYPE":"U","NORAD_CAT_ID":62771,"ELEMENT_SET_NO":999,"REV_AT_EPOCH":3424,"BSTAR":0.00022741735,"MEAN_MOTION_DOT":6.371e-5,"MEAN_MOTION_DDOT":0},{"OBJECT_NAME":"STARLINK-33600","OBJECT_ID":"2025-015Q","EPOCH":"2025-08-24T01:59:08.131200","MEAN_MOTION":15.30195577,"ECCENTRICITY":0.00014402,"INCLINATION":53.1582,"RA_OF_ASC_NODE":160.5284,"ARG_OF_PERICENTER":60.3535,"MEAN_ANOMALY":299.7609,"EPHEMERIS_TYPE":0,"CLASSIFICATION_TYPE":"U","NORAD_CAT_ID":62772,"ELEMENT_SET_NO":999,"REV_AT_EPOCH":3422,"BSTAR":0.00052037882,"MEAN_MOTION_DOT":0.00015082,"MEAN_MOTION_DDOT":0},{"OBJECT_NAME":"STARLINK-33567","OBJECT_ID":"2025-015R","EPOCH":"2025-08-24T12:16:28.669152","MEAN_MOTION":15.3020214,"ECCENTRICITY":0.00015315,"INCLINATION":53.1616,"RA_OF_ASC_NODE":158.2259,"ARG_OF_PERICENTER":86.7362,"MEAN_ANOMALY":273.3814,"EPHEMERIS_TYPE":0,"CLASSIFICATION_TYPE":"U","NORAD_CAT_ID":62773,"ELEMENT_SET_NO":999,"REV_AT_EPOCH":3429,"BSTAR":0.00057724239,"MEAN_MOTION_DOT":0.00016777,"MEAN_MOTION_DDOT":0},{"OBJECT_NAME":"STARLINK-33574","OBJECT_ID":"2025-015S","EPOCH":"2025-08-24T12:05:49.656480","MEAN_MOTION":15.30186697,"ECCENTRICITY":0.00014233,"INCLINATION":53.1616,"RA_OF_ASC_NODE":158.1843,"ARG_OF_PERICENTER":94.7859,"MEAN_ANOMALY":265.3304,"EPHEMERIS_TYPE":0,"CLASSIFICATION_TYPE":"U","NORAD_CAT_ID":62774,"ELEMENT_SET_NO":999,"REV_AT_EPOCH":3401,"BSTAR":0.00067588725,"MEAN_MOTION_DOT":0.00019704,"MEAN_MOTION_DDOT":0},{"OBJECT_NAME":"STARLINK-33576","OBJECT_ID":"2025-015T","EPOCH":"2025-08-24T01:43:56.220672","MEAN_MOTION":15.30196542,"ECCENTRICITY":0.00012602,"INCLINATION":53.1591,"RA_OF_ASC_NODE":160.4675,"ARG_OF_PERICENTER":61.3504,"MEAN_ANOMALY":298.7623,"EPHEMERIS_TYPE":0,"CLASSIFICATION_TYPE":"U","NORAD_CAT_ID":62775,"ELEMENT_SET_NO":999,"REV_AT_EPOCH":3416,"BSTAR":0.00064894696,"MEAN_MOTION_DOT":0.00018908,"MEAN_MOTION_DDOT":0},{"OBJECT_NAME":"STARLINK-33570","OBJECT_ID":"2025-015U","EPOCH":"2025-08-24T12:04:19.138656","MEAN_MOTION":15.30204658,"ECCENTRICITY":0.00012215,"INCLINATION":53.1607,"RA_OF_ASC_NODE":158.1754,"ARG_OF_PERICENTER":95.2537,"MEAN_ANOMALY":264.8603,"EPHEMERIS_TYPE":0,"CLASSIFICATION_TYPE":"U","NORAD_CAT_ID":62776,"ELEMENT_SET_NO":999,"REV_AT_EPOCH":3423,"BSTAR":0.00045749005,"MEAN_MOTION_DOT":0.00013216,"MEAN_MOTION_DDOT":0},{"OBJECT_NAME":"STARLINK-33591","OBJECT_ID":"2025-015V","EPOCH":"2025-08-24T01:39:23.134464","MEAN_MOTION":15.30236978,"ECCENTRICITY":8.781e-5,"INCLINATION":53.1592,"RA_OF_ASC_NODE":160.4484,"ARG_OF_PERICENTER":97.6906,"MEAN_ANOMALY":262.4194,"EPHEMERIS_TYPE":0,"CLASSIFICATION_TYPE":"U","NORAD_CAT_ID":62777,"ELEMENT_SET_NO":999,"REV_AT_EPOCH":3422,"BSTAR":0.00071816426,"MEAN_MOTION_DOT":0.00020995,"MEAN_MOTION_DDOT":0},{"OBJECT_NAME":"STARLINK-33573","OBJECT_ID":"2025-015W","EPOCH":"2025-08-24T11:55:11.993376","MEAN_MOTION":15.30212498,"ECCENTRICITY":0.00010075,"INCLINATION":53.1575,"RA_OF_ASC_NODE":158.1349,"ARG_OF_PERICENTER":94.9797,"MEAN_ANOMALY":265.1319,"EPHEMERIS_TYPE":0,"CLASSIFICATION_TYPE":"U","NORAD_CAT_ID":62778,"ELEMENT_SET_NO":999,"REV_AT_EPOCH":3429,"BSTAR":0.00046848172,"MEAN_MOTION_DOT":0.00013547,"MEAN_MOTION_DDOT":0},{"OBJECT_NAME":"STARLINK-33568","OBJECT_ID":"2025-015X","EPOCH":"2025-08-24T12:28:38.115840","MEAN_MOTION":15.30200596,"ECCENTRICITY":0.00014128,"INCLINATION":53.1607,"RA_OF_ASC_NODE":158.2845,"ARG_OF_PERICENTER":79.6628,"MEAN_ANOMALY":280.4532,"EPHEMERIS_TYPE":0,"CLASSIFICATION_TYPE":"U","NORAD_CAT_ID":62779,"ELEMENT_SET_NO":999,"REV_AT_EPOCH":3413,"BSTAR":0.00065391725,"MEAN_MOTION_DOT":0.00019058,"MEAN_MOTION_DDOT":0},{"OBJECT_NAME":"STARLINK-33593","OBJECT_ID":"2025-015Y","EPOCH":"2025-08-24T12:01:19.113024","MEAN_MOTION":15.30194332,"ECCENTRICITY":9.07e-5,"INCLINATION":53.1601,"RA_OF_ASC_NODE":158.1634,"ARG_OF_PERICENTER":83.2686,"MEAN_ANOMALY":276.8418,"EPHEMERIS_TYPE":0,"CLASSIFICATION_TYPE":"U","NORAD_CAT_ID":62780,"ELEMENT_SET_NO":999,"REV_AT_EPOCH":3429,"BSTAR":0.00068115109,"MEAN_MOTION_DOT":0.00019865,"MEAN_MOTION_DDOT":0},{"OBJECT_NAME":"STARLINK-33588","OBJECT_ID":"2025-015Z","EPOCH":"2025-08-24T04:40:37.880832","MEAN_MOTION":15.30202981,"ECCENTRICITY":0.00011854,"INCLINATION":53.1597,"RA_OF_ASC_NODE":157.6185,"ARG_OF_PERICENTER":70.6739,"MEAN_ANOMALY":289.439,"EPHEMERIS_TYPE":0,"CLASSIFICATION_TYPE":"U","NORAD_CAT_ID":62781,"ELEMENT_SET_NO":999,"REV_AT_EPOCH":3427,"BSTAR":0.00051419214,"MEAN_MOTION_DOT":0.00014902,"MEAN_MOTION_DDOT":0}]
