STARLINK-33595          
1 62766U 25015J   25236.50511101  .00015561  00000+0  53640-3 0  9990
2 62766  53.1602 158.1915 0001182  85.9097 274.2039 15.30201142 34290
STARLINK-33572          
1 62767U 25015K   25236.52093542  .00032286  00000+0  10967-2 0  9994
2 62767  53.1602 158.2915 0001307  78.6603 281.4544 15.30221512 34231
STARLINK-33601          
1 62768U 25015L   25236.51460864  .00020070  00000+0  68774-3 0  9997
2 62768  53.1611 158.2485 0001277  88.5796 271.5351 15.30208609 34297
STARLINK-33569          
1 62769U 25015M   25236.49772429  .00014699  00000+0  50740-3 0  9992
2 62769  53.1596 158.1469 0001248  86.4150 273.6993 15.30202324 34293
STARLINK-33594          
1 62770U 25015N   25236.49033608  .00012968  00000+0  44914-3 0  9996
2 62770  53.1591 158.0998 0001298  89.6983 270.4167 15.30205495 34290
STARLINK-33598          
1 62771U 25015P   25236.17328192  .00006371  00000+0  22742-3 0  9993
2 62771  53.1597 159.6740 0000844  75.7506 284.3588 15.30145413 34241
STARLINK-33600          
1 62772U 25015Q   25236.08273300  .00015082  00000+0  52038-3 0  9994
2 62772  53.1582 160.5284 0001440  60.3535 299.7609 15.30195577 34223
STARLINK-33567          
1 62773U 25015R   25236.51144293  .00016777  00000+0  57724-3 0  9990
2 62773  53.1616 158.2259 0001531  86.7362 273.3814 15.30202140 34297
STARLINK-33574          
1 62774U 25015S   25236.50404695  .00019704  00000+0  67589-3 0  9998
2 62774  53.1616 158.1843 0001423  94.7859 265.3304 15.30186697 34019
STARLINK-33576          
1 62775U 25015T   25236.07217848  .00018908  00000+0  64895-3 0  9995
2 62775  53.1591 160.4675 0001260  61.3504 298.7623 15.30196542 34167
STARLINK-33570          
1 62776U 25015U   25236.50299929  .00013216  00000+0  45749-3 0  9998
2 62776  53.1607 158.1754 0001221  95.2537 264.8603 15.30204658 34235
STARLINK-33591          
1 62777U 25015V   25236.06901776  .00020995  00000+0  71816-3 0  9996
2 62777  53.1592 160.4484 0000878  97.6906 262.4194 15.30236978 34226
STARLINK-33573          
1 62778U 25015W   25236.49666659  .00013547  00000+0  46848-3 0  9994
2 62778  53.1575 158.1349 0001007  94.9797 265.1319 15.30212498 34292
STARLINK-33568          
1 62779U 25015X   25236.51988560  .00019058  00000+0  65392-3 0  9994
2 62779  53.1607 158.2845 0001412  79.6628 280.4532 15.30200596 34130
STARLINK-33593          
1 62780U 25015Y   25236.50091566  .00019865  00000+0  68115-3 0  9998
2 62780  53.1601 158.1634 0000907  83.2686 276.8418 15.30194332 34293
STARLINK-33588          
1 62781U 25015Z   25236.19488288  .00014902  00000+0  51419-3 0  9991
2 62781  53.1597 157.6185 0001185  70.6739 289.4390 15.30202981 34278
